{"type": "FeatureCollection", "features": [{"type": "Feature", "properties": {"norad_id": 28054, "name": "DMSP 5D-3 F16 (USA 172)", "group": "weather", "lat": -73.16880594128818, "lon": 166.5596325304595, "alt_km": 847.3096174644506, "timestamp": "2025-12-26T14:28:47.332266+00:00", "meta": {"OBJECT_NAME": "DMSP 5D-3 F16 (USA 172)", "OBJECT_ID": "2003-048A", "EPOCH": "2025-12-26T06:46:21.370656", "MEAN_MOTION": 14.14428877, "ECCENTRICITY": 0.00062428, "INCLINATION": 99.0038, "RA_OF_ASC_NODE": 17.8451, "ARG_OF_PERICENTER": 277.3094, "MEAN_ANOMALY": 144.121, "EPHEMERIS_TYPE": 0, "CLASSIFICATION_TYPE": "U", "NORAD_CAT_ID": 28054, "ELEMENT_SET_NO": 999, "REV_AT_EPOCH": 14504, "BSTAR": 8.3744637e-05, "MEAN_MOTION_DOT": 1.15e-06, "MEAN_MOTION_DDOT": 0}, "tle": {"line1": "1 28054U 03048A   25360.28219179  .00000115  00000+0  83745-4 0  9996", "line2": "2 28054  99.0038  17.8451 0006242 277.3094 144.1210 14.14428877145045"}}, "geometry": {"type": "Point", "coordinates": [166.5596325304595, -73.16880594128818]}}, {"type": "Feature", "properties": {"norad_id": 28912, "name": "METEOSAT-9 (MSG-2)", "group": "weather", "lat": -7.6162757840632285, "lon": -2.0707168719961047, "alt_km": 35502.43966730485, "timestamp": "2025-12-26T14:28:47.332312+00:00", "meta": {"OBJECT_NAME": "METEOSAT-9 (MSG-2)", "OBJECT_ID": "2005-049B", "EPOCH": "2025-12-24T18:27:10.310976", "MEAN_MOTION": 1.00268275, "ECCENTRICITY": 0.00719695, "INCLINATION": 8.9553, "RA_OF_ASC_NODE": 55.846, "ARG_OF_PERICENTER": 282.2974, "MEAN_ANOMALY": 77.0088, "EPHEMERIS_TYPE": 0, "CLASSIFICATION_TYPE": "U", "NORAD_CAT_ID": 28912, "ELEMENT_SET_NO": 999, "REV_AT_EPOCH": 524, "BSTAR": 0, "MEAN_MOTION_DOT": 1.45e-06, "MEAN_MOTION_DDOT": 0}, "tle": {"line1": "1 28912U 05049B   25358.76886934  .00000145  00000+0  00000+0 0  9992", "line2": "2 28912   8.9553  55.8460 0071969 282.2974  77.0088  1.00268275  5240"}}, "geometry": {"type": "Point", "coordinates": [-2.0707168719961047, -7.6162757840632285]}}, {"type": "Feature", "properties": {"norad_id": 29522, "name": "DMSP 5D-3 F17 (USA 191)", "group": "weather", "lat": -40.09265919753649, "lon": 178.26320152752294, "alt_km": 843.2515808569942, "timestamp": "2025-12-26T14:28:47.332330+00:00", "meta": {"OBJECT_NAME": "DMSP 5D-3 F17 (USA 191)", "OBJECT_ID": "2006-050A", "EPOCH": "2025-12-26T06:39:07.957152", "MEAN_MOTION": 14.14925237, "ECCENTRICITY": 0.00099932, "INCLINATION": 98.7393, "RA_OF_ASC_NODE": 5.3843, "ARG_OF_PERICENTER": 184.6484, "MEAN_ANOMALY": 175.4599, "EPHEMERIS_TYPE": 0, "CLASSIFICATION_TYPE": "U", "NORAD_CAT_ID": 29522, "ELEMENT_SET_NO": 999, "REV_AT_EPOCH": 98796, "BSTAR": 0.00010966128, "MEAN_MOTION_DOT": 1.69e-06, "MEAN_MOTION_DDOT": 0}, "tle": {"line1": "1 29522U 06050A   25360.27717543  .00000169  00000+0  10966-3 0  9993", "line2": "2 29522  98.7393   5.3843 0009993 184.6484 175.4599 14.14925237987966"}}, "geometry": {"type": "Point", "coordinates": [178.26320152752294, -40.09265919753649]}}, {"type": "Feature", "properties": {"norad_id": 32958, "name": "FENGYUN 3A", "group": "weather", "lat": 16.356119106293335, "lon": 122.40627215454444, "alt_km": 828.7132949954366, "timestamp": "2025-12-26T14:28:47.332344+00:00", "meta": {"OBJECT_NAME": "FENGYUN 3A", "OBJECT_ID": "2008-026A", "EPOCH": "2025-12-25T20:47:43.211904", "MEAN_MOTION": 14.19518678, "ECCENTRICITY": 0.00076064, "INCLINATION": 98.6714, "RA_OF_ASC_NODE": 299.1179, "ARG_OF_PERICENTER": 267.7947, "MEAN_ANOMALY": 92.2359, "EPHEMERIS_TYPE": 0, "CLASSIFICATION_TYPE": "U", "NORAD_CAT_ID": 32958, "ELEMENT_SET_NO": 999, "REV_AT_EPOCH": 91081, "BSTAR": 8.5573603e-05, "MEAN_MOTION_DOT": 1.37e-06, "MEAN_MOTION_DDOT": 0}, "tle": {"line1": "1 32958U 08026A   25359.86647236  .00000137  00000+0  85574-4 0  9992", "line2": "2 32958  98.6714 299.1179 0007606 267.7947  92.2359 14.19518678910812"}}, "geometry": {"type": "Point", "coordinates": [122.40627215454444, 16.356119106293335]}}, {"type": "Feature", "properties": {"norad_id": 35491, "name": "GOES 14", "group": "weather", "lat": 1.171360155523139, "lon": -165.95485414232078, "alt_km": 35834.67608877251, "timestamp": "2025-12-26T14:28:47.332358+00:00", "meta": {"OBJECT_NAME": "GOES 14", "OBJECT_ID": "2009-033A", "EPOCH": "2025-12-26T05:50:36.926016", "MEAN_MOTION": 1.00097068, "ECCENTRICITY": 7.388e-05, "INCLINATION": 1.2369, "RA_OF_ASC_NODE": 85.265, "ARG_OF_PERICENTER": 193.4682, "MEAN_ANOMALY": 145.6502, "EPHEMERIS_TYPE": 0, "CLASSIFICATION_TYPE": "U", "NORAD_CAT_ID": 35491, "ELEMENT_SET_NO": 999, "REV_AT_EPOCH": 485, "BSTAR": 0, "MEAN_MOTION_DOT": 4.1e-07, "MEAN_MOTION_DDOT": 0}, "tle": {"line1": "1 35491U 09033A   25360.24348294  .00000041  00000+0  00000+0 0  9992", "line2": "2 35491   1.2369  85.2650 0000738 193.4682 145.6502  1.00097068  4853"}}, "geometry": {"type": "Point", "coordinates": [-165.95485414232078, 1.171360155523139]}}, {"type": "Feature", "properties": {"norad_id": 35951, "name": "DMSP 5D-3 F18 (USA 210)", "group": "weather", "lat": 77.19176041493968, "lon": -66.54128661967502, "alt_km": 830.9142704782462, "timestamp": "2025-12-26T14:28:47.332371+00:00", "meta": {"OBJECT_NAME": "DMSP 5D-3 F18 (USA 210)", "OBJECT_ID": "2009-057A", "EPOCH": "2025-12-26T05:36:49.582944", "MEAN_MOTION": 14.14778073, "ECCENTRICITY": 0.00116574, "INCLINATION": 98.8851, "RA_OF_ASC_NODE": 336.5682, "ARG_OF_PERICENTER": 27.0399, "MEAN_ANOMALY": 333.1379, "EPHEMERIS_TYPE": 0, "CLASSIFICATION_TYPE": "U", "NORAD_CAT_ID": 35951, "ELEMENT_SET_NO": 999, "REV_AT_EPOCH": 83513, "BSTAR": 0.00017370937, "MEAN_MOTION_DOT": 2.9e-06, "MEAN_MOTION_DDOT": 0}, "tle": {"line1": "1 35951U 09057A   25360.23390721  .00000290  00000+0  17371-3 0  9999", "line2": "2 35951  98.8851 336.5682 0011657  27.0399 333.1379 14.14778073835138"}}, "geometry": {"type": "Point", "coordinates": [-66.54128661967502, 77.19176041493968]}}, {"type": "Feature", "properties": {"norad_id": 36411, "name": "EWS-G2 (GOES 15)", "group": "weather", "lat": -0.8041478908867016, "lon": 13.948555165653152, "alt_km": 35793.78102677512, "timestamp": "2025-12-26T14:28:47.332388+00:00", "meta": {"OBJECT_NAME": "EWS-G2 (GOES 15)", "OBJECT_ID": "2010-008A", "EPOCH": "2025-12-26T01:20:32.726976", "MEAN_MOTION": 1.00270948, "ECCENTRICITY": 0.00056288, "INCLINATION": 0.8445, "RA_OF_ASC_NODE": 86.073, "ARG_OF_PERICENTER": 179.6686, "MEAN_ANOMALY": 270.5509, "EPHEMERIS_TYPE": 0, "CLASSIFICATION_TYPE": "U", "NORAD_CAT_ID": 36411, "ELEMENT_SET_NO": 999, "REV_AT_EPOCH": 5790, "BSTAR": 0, "MEAN_MOTION_DOT": 6e-07, "MEAN_MOTION_DDOT": 0}, "tle": {"line1": "1 36411U 10008A   25360.05593434  .00000060  00000+0  00000+0 0  9997", "line2": "2 36411   0.8445  86.0730 0005628 179.6686 270.5509  1.00270948 57906"}}, "geometry": {"type": "Point", "coordinates": [13.948555165653152, -0.8041478908867016]}}, {"type": "Feature", "properties": {"norad_id": 36744, "name": "COMS 1", "group": "weather", "lat": 0.2344088296117698, "lon": 80.69815497766423, "alt_km": 35789.91089628204, "timestamp": "2025-12-26T14:28:47.332412+00:00", "meta": {"OBJECT_NAME": "COMS 1", "OBJECT_ID": "2010-032A", "EPOCH": "2025-12-25T12:42:15.782976", "MEAN_MOTION": 1.00270082, "ECCENTRICITY": 8.877e-05, "INCLINATION": 4.3689, "RA_OF_ASC_NODE": 77.8525, "ARG_OF_PERICENTER": 213.8569, "MEAN_ANOMALY": 121.3153, "EPHEMERIS_TYPE": 0, "CLASSIFICATION_TYPE": "U", "NORAD_CAT_ID": 36744, "ELEMENT_SET_NO": 999, "REV_AT_EPOCH": 4934, "BSTAR": 0, "MEAN_MOTION_DOT": -3.24e-06, "MEAN_MOTION_DDOT": 0}, "tle": {"line1": "1 36744U 10032A   25359.52934934 -.00000324  00000+0  00000+0 0  9991", "line2": "2 36744   4.3689  77.8525 0000887 213.8569 121.3153  1.00270082 49343"}}, "geometry": {"type": "Point", "coordinates": [80.69815497766423, 0.2344088296117698]}}, {"type": "Feature", "properties": {"norad_id": 37214, "name": "FENGYUN 3B", "group": "weather", "lat": 45.66560296239744, "lon": 31.352925511051982, "alt_km": 838.5876611406693, "timestamp": "2025-12-26T14:28:47.332426+00:00", "meta": {"OBJECT_NAME": "FENGYUN 3B", "OBJECT_ID": "2010-059A", "EPOCH": "2025-12-26T06:23:06.381312", "MEAN_MOTION": 14.14794627, "ECCENTRICITY": 0.00214606, "INCLINATION": 98.9886, "RA_OF_ASC_NODE": 40.3365, "ARG_OF_PERICENTER": 318.8305, "MEAN_ANOMALY": 170.5016, "EPHEMERIS_TYPE": 0, "CLASSIFICATION_TYPE": "U", "NORAD_CAT_ID": 37214, "ELEMENT_SET_NO": 999, "REV_AT_EPOCH": 78297, "BSTAR": 0.00021833383, "MEAN_MOTION_DOT": 3.76e-06, "MEAN_MOTION_DDOT": 0}, "tle": {"line1": "1 37214U 10059A   25360.26604608  .00000376  00000+0  21833-3 0  9995", "line2": "2 37214  98.9886  40.3365 0021460 318.8305 170.5016 14.14794627782977"}}, "geometry": {"type": "Point", "coordinates": [31.352925511051982, 45.66560296239744]}}, {"type": "Feature", "properties": {"norad_id": 37849, "name": "SUOMI NPP", "group": "weather", "lat": 56.6260955924255, "lon": 131.38758018333647, "alt_km": 819.9760149857157, "timestamp": "2025-12-26T14:28:47.332438+00:00", "meta": {"OBJECT_NAME": "SUOMI NPP", "OBJECT_ID": "2011-061A", "EPOCH": "2025-12-22T15:10:21.732672", "MEAN_MOTION": 14.19516903, "ECCENTRICITY": 0.00024883, "INCLINATION": 98.7787, "RA_OF_ASC_NODE": 293.8852, "ARG_OF_PERICENTER": 103.0781, "MEAN_ANOMALY": 257.0673, "EPHEMERIS_TYPE": 0, "CLASSIFICATION_TYPE": "U", "NORAD_CAT_ID": 37849, "ELEMENT_SET_NO": 999, "REV_AT_EPOCH": 73339, "BSTAR": 6.3406935e-05, "MEAN_MOTION_DOT": 8.9e-07, "MEAN_MOTION_DDOT": 0}, "tle": {"line1": "1 37849U 11061A   25356.63219598  .00000089  00000+0  63407-4 0  9994", "line2": "2 37849  98.7787 293.8852 0002488 103.0781 257.0673 14.19516903733392"}}, "geometry": {"type": "Point", "coordinates": [131.38758018333647, 56.6260955924255]}}]}